NORAD_CAT_ID,OBJECT_NAME,OBJECT_TYPE,EPOCH,MEAN_MOTION,ECCENTRICITY,INCLINATION,RA_OF_ASC_NODE,ARG_OF_PERICENTER,MEAN_ANOMALY,BSTAR,MEAN_MOTION_DOT,MEAN_MOTION_DDOT,TLE_LINE0,TLE_LINE1,TLE_LINE2,SEMIMAJOR_AXIS,PERIOD,APOGEE,PERIGEE,DECAYED
52267.0,STARLINK-3748,PAYLOAD,2023-11-16 06:27:02,15.08841188,0.0001874,53.2174,299.8725,96.8947,263.2258,0.00020359,2.954e-05,0.0,0 STARLINK-3748,1 52267U 22041G   23320.26877887  .00002954  00000-0  20359-3 0  9996,2 52267  53.2174 299.8725 0001874  96.8947 263.2258 15.08841188 88100,6917.877,95.437,541.038,538.445,0.0
52267.0,STARLINK-3748,PAYLOAD,2023-11-16 22:20:54,15.08838542,0.0001795,53.217,296.9019,95.8473,264.2724,0.00012739,1.74e-05,0.0,0 STARLINK-3748,1 52267U 22041G   23320.93118145  .00001740  00000-0  12739-3 0  9990,2 52267  53.2170 296.9019 0001795  95.8473 264.2724 15.08838542 86988,6917.885,95.438,540.992,538.508,0.0
52267.0,STARLINK-3748,PAYLOAD,2023-11-17 07:53:12,15.08844068,0.0001817,53.2175,295.1177,94.2828,265.8372,0.00012418,1.689e-05,0.0,0 STARLINK-3748,1 52267U 22041G   23321.32861989  .00001689  00000-0  12418-3 0  9991,2 52267  53.2175 295.1177 0001817  94.2828 265.8372 15.08844068 88260,6917.868,95.437,540.99,538.476,0.0
52267.0,STARLINK-3748,PAYLOAD,2023-11-17 15:50:08,15.08839534,0.0001673,53.2165,293.6296,95.0486,265.0697,5.3895e-05,5.7e-06,0.0,0 STARLINK-3748,1 52267U 22041G   23321.65982217  .00000570  00000-0  53895-4 0  9998,2 52267  53.2165 293.6296 0001673  95.0486 265.0697 15.08839534 87097,6917.882,95.438,540.904,538.589,0.0
52267.0,STARLINK-3748,PAYLOAD,2023-11-18 07:43:59,15.08846265,0.0001701,53.2159,290.6551,98.9981,261.1204,0.00013112,1.8e-05,0.0,0 STARLINK-3748,1 52267U 22041G   23322.32221906  .00001800  00000-0  13112-3 0  9998,2 52267  53.2159 290.6551 0001701  98.9981 261.1204 15.08846265 87196,6917.861,95.437,540.903,538.55,0.0
52267.0,STARLINK-3748,PAYLOAD,2023-11-18 15:40:55,15.08843264,0.0001732,53.217,289.1662,97.175,262.9439,9.7085e-05,1.258e-05,0.0,0 STARLINK-3748,1 52267U 22041G   23322.65342004  .00001258  00000-0  97085-4 0  9996,2 52267  53.2170 289.1662 0001732  97.1750 262.9439 15.08843264 88460,6917.87,95.437,540.934,538.537,0.0
52267.0,STARLINK-3748,PAYLOAD,2023-11-19 04:24:00,15.088476,0.0001786,53.2169,286.7881,97.7774,262.3421,0.00013133,1.803e-05,0.0,0 STARLINK-3748,1 52267U 22041G   23323.18333726  .00001803  00000-0  13133-3 0  9993,2 52267  53.2169 286.7881 0001786  97.7774 262.3421 15.08847600 87322,6917.857,95.437,540.958,538.487,0.0
52267.0,STARLINK-3748,PAYLOAD,2023-11-20 04:14:47,15.08846644,0.0001711,53.2171,282.3277,95.261,264.8577,9.8943e-05,1.287e-05,0.0,0 STARLINK-3748,1 52267U 22041G   23324.17693479  .00001287  00000-0  98943-4 0  9996,2 52267  53.2171 282.3277 0001711  95.2610 264.8577 15.08846644 88693,6917.86,95.437,540.909,538.541,0.0
52267.0,STARLINK-3748,PAYLOAD,2023-11-20 13:47:06,15.08845242,0.0001677,53.2175,280.5438,92.6678,267.4507,7.0196e-05,8.29e-06,0.0,0 STARLINK-3748,1 52267U 22041G   23324.57437613  .00000829  00000-0  70196-4 0  9997,2 52267  53.2175 280.5438 0001677  92.6678 267.4507 15.08845242 87539,6917.864,95.437,540.889,538.569,0.0
52267.0,STARLINK-3748,PAYLOAD,2023-11-21 04:05:34,15.08842121,0.0001681,53.2179,277.8716,92.2715,267.8469,2.3377e-05,8.4e-07,0.0,0 STARLINK-3748,1 52267U 22041G   23325.17053878  .00000084  00000-0  23377-4 0  9993,2 52267  53.2179 277.8716 0001681  92.2715 267.8469 15.08842121 88843,6917.874,95.437,540.902,538.576,0.0
52267.0,STARLINK-3748,PAYLOAD,2023-11-21 05:40:57,15.0884219,0.0001737,53.2183,277.5745,93.5339,266.5852,6.2632e-05,7.09e-06,0.0,0 STARLINK-3748,1 52267U 22041G   23325.23677853  .00000709  00000-0  62632-4 0  9996,2 52267  53.2183 277.5745 0001737  93.5339 266.5852 15.08842190 87639,6917.874,95.437,540.94,538.537,0.0
52267.0,STARLINK-3748,PAYLOAD,2023-11-22 03:56:21,15.08838846,0.0001671,53.219,273.4104,90.7703,269.3481,0.00010633,1.405e-05,0.0,0 STARLINK-3748,1 52267U 22041G   23326.16414203  .00001405  00000-0  10633-3 0  9994,2 52267  53.2190 273.4104 0001671  90.7703 269.3481 15.08838846 87779,6917.884,95.438,540.905,538.593,0.0
52267.0,STARLINK-3748,PAYLOAD,2023-11-23 05:22:31,15.08850247,0.0001625,53.2172,268.6503,100.0934,260.0241,0.00054814,8.449e-05,0.0,0 STARLINK-3748,1 52267U 22041G   23327.22397604  .00008449  00000-0  54814-3 0  9991,2 52267  53.2172 268.6503 0001625 100.0934 260.0241 15.08850247 89153,6917.849,95.437,540.838,538.59,0.0
52267.0,STARLINK-3748,PAYLOAD,2023-11-24 03:37:56,15.08832628,0.0001792,53.2171,264.4882,83.5564,276.5632,-1.6757e-05,-5.55e-06,0.0,0 STARLINK-3748,1 52267U 22041G   23328.15134762 -.00000555  00000-0 -16757-4 0  9995,2 52267  53.2171 264.4882 0001792  83.5564 276.5632 15.08832628 89299,6917.903,95.438,541.008,538.528,0.0
52267.0,STARLINK-3748,PAYLOAD,2023-11-24 19:31:47,15.08837373,0.0001703,53.2167,261.5167,93.259,266.8597,7.1678e-05,8.53e-06,0.0,0 STARLINK-3748,1 52267U 22041G   23328.81374985  .00000853  00000-0  71678-4 0  9993,2 52267  53.2167 261.5167 0001703  93.2590 266.8597 15.08837373 88177,6917.888,95.438,540.932,538.575,0.0
52267.0,STARLINK-3748,PAYLOAD,2023-11-25 01:53:20,15.08841687,0.0001812,53.2162,260.3283,80.6379,279.4818,0.00034799,5.255e-05,0.0,0 STARLINK-3748,1 52267U 22041G   23329.07871094  .00005255  00000-0  34799-3 0  9998,2 52267  53.2162 260.3283 0001812  80.6379 279.4818 15.08841687 88218,6917.875,95.437,540.994,538.487,0.0
52267.0,STARLINK-3748,PAYLOAD,2023-11-25 22:33:20,15.08870919,0.000172,53.2157,256.4618,91.852,268.2669,0.0010076,0.00015798,0.0,0 STARLINK-3748,1 52267U 22041G   23329.93982185  .00015798  00000-0  10076-2 0  9991,2 52267  53.2157 256.4618 0001720  91.8520 268.2669 15.08870919 88344,6917.786,95.436,540.841,538.461,0.0
52267.0,STARLINK-3748,PAYLOAD,2023-11-26 01:44:06,15.08889898,0.0001839,53.2168,255.8659,99.055,261.065,0.0017881,0.00028323,0.0,0 STARLINK-3748,1 52267U 22041G   23330.07229682  .00028323  00000-0  17881-2 0  9993,2 52267  53.2168 255.8659 0001839  99.0550 261.0650 15.08889898 89582,6917.728,95.434,540.865,538.321,0.0
52267.0,STARLINK-3748,PAYLOAD,2023-11-26 22:24:07,15.08836907,0.0002416,53.2172,252.0015,142.337,217.7791,-0.00014576,-2.607e-05,0.0,0 STARLINK-3748,1 52267U 22041G   23330.93342184 -.00002607  00000-0 -14576-3 0  9999,2 52267  53.2172 252.0015 0002416 142.3370 217.7791 15.08836907 88492,6917.89,95.438,541.426,538.083,0.0
52267.0,STARLINK-3748,PAYLOAD,2023-11-27 01:34:54,15.08831731,0.0002333,53.2179,251.4062,143.9329,216.1821,-0.00011445,-2.109e-05,0.0,0 STARLINK-3748,1 52267U 22041G   23331.06590357 -.00002109  00000-0 -11445-3 0  9990,2 52267  53.2179 251.4062 0002333 143.9329 216.1821 15.08831731 89738,6917.906,95.438,541.385,538.157,0.0
52267.0,STARLINK-3748,PAYLOAD,2023-11-27 04:45:40,15.08827266,0.0001646,53.2174,250.808,125.2904,234.8242,6.4717e-05,7.42e-06,0.0,0 STARLINK-3748,1 52267U 22041G   23331.19838723  .00000742  00000-0  64717-4 0  9996,2 52267  53.2174 250.8080 0001646 125.2904 234.8242 15.08827266 88533,6917.919,95.438,540.923,538.646,0.0
52267.0,STARLINK-3748,PAYLOAD,2023-11-27 22:14:55,15.0884042,0.000149,53.2187,247.5398,75.5725,284.5432,0.0010749,0.00016861,0.0,0 STARLINK-3748,1 52267U 22041G   23331.92703281  .00016861  00000-0  10749-2 0  9990,2 52267  53.2187 247.5398 0001490  75.5725 284.5432 15.08840420 88649,6917.879,95.438,540.775,538.713,0.0
52267.0,STARLINK-3748,PAYLOAD,2023-11-28 01:25:41,15.08856913,0.0001532,53.217,246.9409,80.2656,279.8509,0.0023432,0.00037219,0.0,0 STARLINK-3748,1 52267U 22041G   23332.05951153  .00037219  00000-0  23432-2 0  9991,2 52267  53.2170 246.9409 0001532  80.2656 279.8509 15.08856913 89883,6917.829,95.436,540.754,538.634,0.0
52267.0,STARLINK-3748,PAYLOAD,2023-11-28 03:01:04,15.08862333,0.0001555,53.217,246.6436,79.4952,280.6215,0.0022389,0.00035546,0.0,0 STARLINK-3748,1 52267U 22041G   23332.12574994  .00035546  00000-0  22389-2 0  9994,2 52267  53.2170 246.6436 0001555  79.4952 280.6215 15.08862333 88677,6917.812,95.436,540.753,538.601,0.0
52267.0,STARLINK-3748,PAYLOAD,2023-11-28 18:54:55,15.08851426,0.0001545,53.2173,243.6721,100.9675,259.1491,-0.00014225,-2.552e-05,0.0,0 STARLINK-3748,1 52267U 22041G   23332.78814558 -.00002552  00000-0 -14225-3 0  9993,2 52267  53.2173 243.6721 0001545 100.9675 259.1491 15.08851426 89999,6917.845,95.437,540.779,538.642,0.0
52267.0,STARLINK-3748,PAYLOAD,2023-11-28 22:05:42,15.08850995,0.0001446,53.2166,243.0785,96.6463,263.4694,0.00038995,5.925e-05,0.0,0 STARLINK-3748,1 52267U 22041G   23332.92062542  .00005925  00000-0  38995-3 0  9992,2 52267  53.2166 243.0785 0001446  96.6463 263.4694 15.08850995 88791,6917.847,95.437,540.712,538.711,0.0
52267.0,STARLINK-3748,PAYLOAD,2023-11-28 23:41:05,15.08854648,0.0001572,53.2167,242.7807,103.6974,256.4193,0.00054632,8.421e-05,0.0,0 STARLINK-3748,1 52267U 22041G   23332.98686434  .00008421  00000-0  54632-3 0  9990,2 52267  53.2167 242.7807 0001572 103.6974 256.4193 15.08854648 90023,6917.836,95.437,540.788,538.613,0.0
52267.0,STARLINK-3748,PAYLOAD,2023-11-30 02:42:38,15.08842123,0.0001571,53.2154,237.7247,91.8766,268.2406,0.00069856,0.00010848,0.0,0 STARLINK-3748,1 52267U 22041G   23334.11294936  .00010848  00000-0  69856-3 0  9999,2 52267  53.2154 237.7247 0001571  91.8766 268.2406 15.08842123 90198,6917.874,95.437,540.826,538.652,0.0
52267.0,STARLINK-3748,PAYLOAD,2023-12-01 00:58:03,15.08837576,0.0001601,53.2156,233.5623,79.4111,280.7062,0.00046078,7.052e-05,0.0,0 STARLINK-3748,1 52267U 22041G   23335.04031408  .00007052  00000-0  46078-3 0  9999,2 52267  53.2156 233.5623 0001601  79.4111 280.7062 15.08837576 90331,6917.888,95.438,540.86,538.645,0.0
52267.0,STARLINK-3748,PAYLOAD,2023-12-01 21:38:03,15.08848648,0.0001703,53.2151,229.697,70.2159,289.9017,0.00047555,7.29e-05,0.0,0 STARLINK-3748,1 52267U 22041G   23335.90143396  .00007290  00000-0  47555-3 0  9999,2 52267  53.2151 229.6970 0001703  70.2159 289.9017 15.08848648 89242,6917.854,95.437,540.897,538.541,0.0
